NORAD_CAT_ID,EPOCH_UNIX,MEAN_MOTION,ECCENTRICITY,INCLINATION,RA_OF_ASC_NODE,ARG_OF_PERICENTER,MEAN_ANOMALY,APOAPSIS,PERIAPSIS,BSTAR,ORBITAL_PERIOD,SEMI_MAJOR_AXIS,ORBITAL_VELOCITY,PERIGEE_ALTITUDE,APOGEE_ALTITUDE
33690,1754629827,14.48792478,0.0034497,98.6142,315.8108,75.028,285.4728,754.117,705.078,0.0012927,5963.5870086288505,7107.732144123628,7.4703528429674195,-5665.9220000000005,-5616.883
33693,1754633953,13.7077695,0.0227666,99.2176,42.9872,330.2663,28.5704,1164.687,828.883,0.00087478,6302.9948088928695,7374.919983002218,7.193189127481391,-5542.117,-5206.313
33698,1754322083,14.55066354,0.0138516,99.6012,157.259,243.9743,114.7132,807.322,610.981,0.00018293,5937.87353837748,7087.286278229129,7.403722105816808,-5760.019,-5563.678
33701,1752287753,14.01305106,0.0133173,98.6496,155.266,260.1681,98.4428,986.064,792.499,0.00086674,6165.680809272667,7267.416295171994,7.315117863444507,-5578.501,-5384.936
33710,1754716897,14.11020132,0.0057175,98.9775,320.0597,140.1169,220.4224,897.245,814.524,0.00081975,6123.229431002902,7234.0199346477475,7.387956330151775,-5556.476,-5473.755
33711,1754707550,14.00647539,0.0097558,99.2097,273.7729,33.7608,356.2377,962.477,820.634,0.00044397,6168.575433451713,7269.690690480754,7.3400700009748086,-5550.366,-5408.523
33716,1754610941,14.32515887,0.0094027,98.8636,142.6733,9.0075,351.2768,850.673,715.998,0.00013168,6031.346722509334,7161.470543292806,7.398042592780267,-5655.002,-5520.327
33718,1754519400,14.07114358,0.00985538,99.6646,296.7328,310.4058,48.8539,940.691,797.839,0.001186218,6140.225882053007,7247.400222127886,7.350638966158081,-5573.161,-5430.309
33719,1754693333,14.22773591,0.0031943,98.7855,281.2918,82.9114,94.2971,838.97,793.01,0.00070484,6072.645749579421,7194.124970183473,7.427170019163754,-5577.99,-5532.03
33721,1754734592,15.33494855,0.0036781,98.8054,34.2827,16.5098,343.7328,490.568,440.226,0.0024304,5634.189101990824,6843.531845092809,7.611743659869473,-5930.774,-5880.432
33722,1754676404,14.20814526,0.015795,98.5828,238.6638,256.7847,101.5669,936.337,708.866,0.000372,6081.018909853122,7200.7364461307525,7.33078720946943,-5662.134,-5434.6630000000005
33723,1754304653,14.12000723,0.0100035,99.1608,294.1547,337.4925,83.9473,924.867,780.203,0.0011863,6118.977036812749,7230.670344226537,7.358064754251284,-5590.7970000000005,-5446.133
33724,1754722193,14.19324272,0.0027443,98.6087,235.1156,182.57,194.165,847.416,807.866,0.00035473,6087.403823387866,7205.775956604435,7.424491085014825,-5563.134,-5523.584
33726,1754638728,14.1395401,0.0193806,98.6244,348.7114,32.893,357.3585,985.88,705.869,0.00019446,6110.524061528706,7224.009671113988,7.2927428831617105,-5665.131,-5385.12
33728,1754730260,14.90565042,0.0152441,98.9981,259.7972,257.0246,101.3908,702.492,489.857,0.00029289,5796.459568384269,6974.309565136222,7.453181735239544,-5881.143,-5668.508
33730,1754471571,14.60745692,0.0042445,99.0693,263.8562,44.1612,316.2961,720.773,660.765,0.0012317,5914.787253741905,7068.904241260016,7.484931645612056,-5710.235,-5650.227
33731,1754636763,13.94800122,0.0131814,99.4554,239.391,37.886,323.1487,1007.952,815.767,0.0013293,6194.435936534855,7289.994324335672,7.304751743129352,-5555.233,-5363.048
33733,1754712517,14.28206635,0.008399,99.1049,300.9413,171.5442,219.158,858.004,737.463,0.0028611,6049.544784533227,7175.868591997814,7.398024322721394,-5633.537,-5512.996
33737,1754656444,14.02462737,0.0127453,98.3519,64.8798,280.9428,107.5547,977.856,792.707,0.00052634,6160.591488143047,7263.416595700128,7.321323198247661,-5578.293,-5393.144
33738,1754608670,13.99174353,0.0186678,99.1661,279.9404,10.0901,112.5397,1032.462,760.853,0.00045106,6175.0703059091875,7274.7926174631475,7.272377324979915,-5610.147,-5338.5380000000005
33740,1754638787,14.12232736,0.0002217,98.6941,237.0479,124.3907,235.7475,853.346,850.141,0.00011564,6117.971761844217,7229.878380591287,7.430802505418087,-5520.859,-5517.654
33741,1754675376,14.08522157,0.0131892,98.5617,140.5277,86.5612,275.0635,959.959,768.912,0.0014266,6134.088808657626,7242.570297800253,7.3286184699936365,-5602.088,-5411.041
33745,1754614207,14.21395971,0.0052993,99.1233,252.9839,268.5233,90.9872,858.786,782.489,0.001046,6078.531370763257,7198.772593791773,7.409154352082253,-5588.511,-5512.214
33747,1754697397,14.159397,0.0089935,99.0987,312.9124,213.1419,146.41,904.028,774.211,0.0016815,6101.95476544658,7217.254205168449,7.372356105939077,-5596.789,-5466.972
33748,1754491362,14.31248511,0.00345493,98.5985,271.0643,258.0213,101.7096,812.32,762.806,0.00061234388,6036.687502971313,7165.697592537167,7.439977102090501,-5608.1939999999995,-5558.68
33757,1754667582,14.32539713,0.0015901,74.0356,193.7754,244.0376,290.3599,794.643,771.869,2.6737e-05,6031.246409152777,7161.391136688993,7.456110594597435,-5599.131,-5576.357
33758,1754679791,14.50398423,0.0018302,74.0281,92.0087,192.93,246.7408,737.348,711.351,0.00052658,5956.983862495554,7102.484512752207,7.485230979646266,-5659.649,-5633.652
33760,1754690872,14.35564551,0.002163,74.0323,152.3478,283.5346,145.2091,788.661,757.725,8.3342e-05,6018.5381381711195,7151.32788902322,7.457091618972431,-5613.275,-5582.339
33761,1754682117,14.4203693,0.0024187,74.0362,125.6855,240.6678,182.4967,769.023,734.533,0.00030886,5991.52478015941,7129.913366499594,7.466395085790408,-5636.467,-5601.977
33762,1754642182,14.33613547,0.0016489,74.041,181.0683,277.3147,236.4769,791.482,767.877,3.7573e-05,6026.72876388493,7157.814577458162,7.457537981202923,-5603.123,-5579.518
33764,1754687429,14.39158277,0.0022129,74.0339,144.9918,143.3832,281.6193,777.082,745.484,0.00025916,6003.509230416635,7139.417862097518,7.462948469230622,-5625.516,-5593.918
33765,1754695520,15.00084468,0.0085483,74.0113,70.9007,195.0442,235.4447,626.004,507.272,0.0013729,5759.67566114417,6944.772632076029,7.519232232928683,-5863.728,-5744.996
33766,1754680541,14.34445011,0.0063645,74.1881,3.566,243.1208,116.3431,822.452,731.375,0.00044351,6023.235421186877,7155.048332118139,7.423890677706535,-5639.625,-5548.548
33768,1754746669,13.58333787,0.0367036,74.0682,61.8567,247.5354,170.9419,1314.092,769.419,0.00029664,6360.734071911885,7419.890663168012,7.071979445664981,-5601.581,-5056.907999999999
33773,1754679375,14.42868623,0.0009789,86.4012,113.9673,201.1161,158.9637,756.015,742.061,0.00022452,5988.071167585435,7127.173237670709,7.478592548918995,-5628.939,-5614.985
33775,1754733236,14.41024248,0.0011282,86.3622,103.0594,210.6706,323.0423,763.166,747.071,0.0003229,5995.735333386284,7133.2533470809,7.474282324072645,-5623.929,-5607.834
33776,1754685802,14.37943699,0.0012154,86.4078,133.6305,249.7962,177.7766,773.985,756.62,0.00022003,6008.580173207462,7143.437564955024,7.468290159912139,-5614.38,-5597.015
33777,1754700217,14.54117426,0.000651,86.3751,89.8313,342.6252,17.4731,716.85,707.618,0.00071755,5941.748476095905,7090.369290653723,7.500475038949969,-5663.382,-5654.15
33779,1754693563,14.67097459,0.0020865,74.0442,53.9371,122.5542,35.432,685.058,655.645,0.0010676,5889.179309116369,7048.486377463545,7.511980080784108,-5715.355,-5685.942
33782,1754633221,14.40000494,0.0022411,74.0336,151.3773,252.251,265.1853,774.493,742.505,0.00026586,5999.997941667372,7136.6338235248295,7.464196467631852,-5628.495,-5596.507
33784,1753719123,16.17721079,0.0015211,74.1076,78.6501,218.0967,141.9207,235.794,215.703,0.0050407,5340.846523024134,6603.883629307544,7.765649516514891,-6155.297,-6135.206
33785,1754672132,14.67644011,0.0021167,73.8704,306.3737,282.8666,201.7955,683.517,653.686,0.00076607,5886.98617324307,7046.736360228986,7.512687955895448,-5717.314,-5687.483
33789,1754716686,13.88525583,0.0240165,74.0647,300.3753,84.6174,308.7684,1109.412,758.197,0.00019277,6222.427664121764,7311.939411769114,7.2151331939787156,-5612.803,-5261.588
33791,1754689932,14.42288323,0.0027114,74.173,269.126,137.2436,39.4856,770.28,731.62,0.00049427,5990.480448478262,7129.084839426167,7.464643691486655,-5639.38,-5600.72
33792,1754712271,13.45576412,0.0431961,73.8993,185.8369,273.1886,102.6266,1411.113,766.047,0.0004841,6421.040026376443,7466.7153934939515,7.004035866436423,-5604.9529999999995,-4959.887
33793,1754689657,14.27106334,0.0078382,73.9825,18.4781,196.6701,288.2009,857.696,745.147,0.00072236,6054.208992110044,7179.556521415374,7.40026997212883,-5625.853,-5513.304
33795,1754675484,14.98615512,0.0042172,74.0367,333.5373,91.3326,26.9815,600.482,541.868,0.0013772,5765.321345479307,6949.310108815914,7.549399589359207,-5829.132,-5770.518
33797,1754661009,14.56998484,0.0063622,74.0459,274.5535,32.9126,27.3652,747.935,657.833,0.00025952,5929.999306711701,7081.019245063024,7.462692066028516,-5713.167,-5623.0650000000005
33798,1754686588,14.44403548,0.0091539,74.0306,10.2984,162.8395,321.585,809.183,678.793,0.00018368,5981.707821171871,7122.123118605841,7.420337896354487,-5692.207,-5561.817
33799,1754677342,14.74978301,0.0031165,74.0354,328.8513,71.0816,88.7837,667.11,623.334,0.0014467,5857.713292556431,7023.357153084616,7.517687287087095,-5747.666,-5703.89
33805,1754663445,14.57397017,0.0060509,74.03,191.1906,49.5219,311.1197,744.432,658.755,0.00024765,5928.377716722059,7079.728291195009,7.465697480527519,-5712.245,-5626.568
33811,1754672748,14.9907125,0.0039252,73.8384,202.6297,312.9914,225.3024,597.038,542.495,0.0011349,5763.568609564089,6947.901581065222,7.552372156602861,-5828.505,-5773.9619999999995
33813,1754711458,15.40609624,0.0033076,74.0165,177.4104,263.6528,96.0913,466.877,421.745,0.0024919,5608.169561843526,6822.445948961431,7.626346693190385,-5949.255,-5904.123
33815,1754666911,14.93465149,0.0027454,73.9646,75.2645,184.0621,232.2121,606.265,568.02,0.0025773,5785.203629147425,6965.277864256385,7.551830780936955,-5802.98,-5764.735
33816,1754700061,13.81570552,0.0267678,73.8969,318.4424,354.9785,4.8659,1154.704,761.943,0.0002136,6253.752287563234,7336.458459789024,7.183241211458582,-5609.057,-5216.296
